IRIDIUM 155             
1 43573U 18061E   23247.37447376  .00000466  00000+0  15921-3 0  9993
2 43573  86.3962 121.6866 0002392  86.0406 274.1063 14.34214589267614
IRIDIUM 154             
1 43574U 18061F   23247.35544447  .00000044  00000+0  87964-5 0  9999
2 43574  86.3965 121.7786 0001896  90.3596 269.7817 14.34217146267660
IRIDIUM 163             
1 43575U 18061G   23247.40618554  .00000330  00000+0  11070-3 0  9998
2 43575  86.3960 121.7044 0002061  85.5400 274.6031 14.34219417267642
IRIDIUM 156             
1 43576U 18061H   23247.17150968  .00000336  00000+0  11277-3 0  9998
2 43576  86.3962 121.8084 0002261  78.7016 281.4434 14.34219439267602
IRIDIUM 164             
1 43577U 18061J   23247.36178961  .00000291  00000+0  96775-4 0  9990
2 43577  86.3964 121.7535 0002025  79.5159 280.6265 14.34216993267672
IRIDIUM 159             
1 43578U 18061K   23247.39984083  .00000035  00000+0  52673-5 0  9990
2 43578  86.3961 121.6959 0002100  87.2624 272.8812 14.34217627267649
IRIDIUM 180             
1 43922U 19002A   23247.46910997  .00000100  00000+0  28683-4 0  9996
2 43922  86.3933  58.4977 0001932  91.4822 268.6595 14.34218081243265
IRIDIUM 176             
1 43923U 19002B   23247.43005590  .00000400  00000+0  59537-4 0  9993
2 43923  86.6061  58.5490 0002281  89.1322 271.0156 14.72250760249651
IRIDIUM 168             
1 43924U 19002C   23247.53253974  .00000093  00000+0  25977-4 0  9995
2 43924  86.3936  58.5197 0002035  91.2833 268.8596 14.34219737243251
IRIDIUM 173             
1 43925U 19002D   23247.45009598  .00000101  00000+0  29157-4 0  9992
2 43925  86.3931  58.4846 0002096  92.8702 267.2733 14.34217212243225
IRIDIUM 169             
1 43926U 19002E   23247.27734053  .00000204  00000+0  60016-4 0  9997
2 43926  86.4173  90.1962 0005450  91.7294 268.4529 14.38618836244024
IRIDIUM 172             
1 43927U 19002F   23247.44371511  .00000081  00000+0  21690-4 0  9991
2 43927  86.3932  58.4922 0002002  91.9283 268.2142 14.34214732243234
IRIDIUM 175             
1 43928U 19002G   23247.49183112  .00000194  00000+0  26767-4 0  9990
2 43928  86.1496  47.8664 0002204  92.6018 267.5451 14.72245828249650
IRIDIUM 171             
1 43929U 19002H   23247.42471190  .00000098  00000+0  28055-4 0  9995
2 43929  86.3941  58.6937 0001947  89.7755 270.3664 14.34217442243223
IRIDIUM 170             
1 43930U 19002J   23247.50418881  .00000381  00000+0  56519-4 0  9995
2 43930  86.6060  58.5227 0002372  88.4923 271.6566 14.72253181249679
IRIDIUM 167             
1 43931U 19002K   23246.99975877  .00000102  00000+0  29323-4 0  9995
2 43931  86.3933  58.6914 0001989  88.9043 271.2380 14.34216940243169
IRIDIUM 181             
1 56726U 23068S   23247.34444175  .00000406  00000+0  11424-3 0  9999
2 56726  86.8581  98.4070 0002552  53.4332 306.7104 14.43585974 15755
IRIDIUM 177             
1 56727U 23068T   23247.32387079  .00000399  00000+0  48980-4 0  9996
2 56727  86.1932  91.5602 0001953  90.0701 270.0744 14.80233673 15946
IRIDIUM 174             
1 56728U 23068U   23247.31843611  .00000410  00000+0  50464-4 0  9999
2 56728  86.1938  91.6433 0002378  90.7695 269.3798 14.80233611 15949
IRIDIUM 178             
1 56729U 23068V   23247.10979701  .00001325  00000+0  17093-3 0  9993
2 56729  86.5736  95.6075 0002325  93.4456 266.7032 14.80239764 15917
IRIDIUM 179             
1 56730U 23068W   23247.30719869  .00001425  00000+0  18414-3 0  9993
2 56730  86.6744  96.0459 0002203  92.0812 268.0661 14.80240266 15941
